ONEWEB-0628             
1 55169U 23004AF  24192.91422758  .00000181  00000+0  46692-3 0  9990
2 55169  87.8957 131.2795 0002442 100.5261 259.6143 13.12443118 75399
ONEWEB-0629             
1 55170U 23004AG  24192.92757592  .00000082  00000+0  17780-3 0  9996
2 55170  87.9178 146.4972 0002531  88.5137 271.6285 13.17651825 74579
ONEWEB-0631             
1 55171U 23004AH  24192.84253694 -.00000339  00000+0 -89199-3 0  9992
2 55171  87.9156 116.0321 0001335  85.8219 274.3066 13.18685637 76588
ONEWEB-0709             
1 55172U 23004AJ  24192.92513522 -.00000111  00000+0 -34897-3 0  9994
2 55172  87.8970 161.6687 0001126  62.8385 297.2858 13.11414635 73301
ONEWEB-0710             
1 55173U 23004AK  24192.92191921 -.00000009  00000+0 -55706-4 0  9999
2 55173  87.9179 146.5106 0001933  84.3274 275.8078 13.17645527 74572
ONEWEB-0711             
1 55174U 23004AL  24192.89632096  .00000413  00000+0  11281-2 0  9994
2 55174  87.8974 161.6434 0002302 108.1539 251.9840 13.11418719 73269
ONEWEB-0713             
1 55175U 23004AM  24192.91498941  .00000424  00000+0  11617-2 0  9992
2 55175  87.8970 161.6479 0002137  95.5037 264.6335 13.11416399 73254
ONEWEB-0715             
1 55176U 23004AN  24192.90988641  .00000540  00000+0  14876-2 0  9992
2 55176  87.8970 161.6491 0001677  87.4540 272.6780 13.11416225 73291
