<?xml version="1.0" encoding="UTF-8"?>
<ndm xmlns:xsi="http://www.w3.org/2001/XMLSchema-instance" xsi:noNamespaceSchemaLocation="https://sanaregistry.org/r/ndmxml_unqualified/ndmxml-2.0.0-master-2.0.xsd">
<omm id="CCSDS_OMM_VERS" version="2.0">
<header><CREATION_DATE/><ORIGINATOR/></header><body><segment><metadata><OBJECT_NAME>ONEWEB-0628</OBJECT_NAME><OBJECT_ID>2023-004AF</OBJECT_ID><CENTER_NAME>EARTH</CENTER_NAME><REF_FRAME>TEME</REF_FRAME><TIME_SYSTEM>UTC</TIME_SYSTEM><MEAN_ELEMENT_THEORY>SGP4</MEAN_ELEMENT_THEORY></metadata><data><meanElements><EPOCH>2024-07-10T21:56:29.262912</EPOCH><MEAN_MOTION>13.12443118</MEAN_MOTION><ECCENTRICITY>.0002442</ECCENTRICITY><INCLINATION>87.8957</INCLINATION><RA_OF_ASC_NODE>131.2795</RA_OF_ASC_NODE><ARG_OF_PERICENTER>100.5261</ARG_OF_PERICENTER><MEAN_ANOMALY>259.6143</MEAN_ANOMALY></meanElements><tleParameters><EPHEMERIS_TYPE>0</EPHEMERIS_TYPE><CLASSIFICATION_TYPE>U</CLASSIFICATION_TYPE><NORAD_CAT_ID>55169</NORAD_CAT_ID><ELEMENT_SET_NO>999</ELEMENT_SET_NO><REV_AT_EPOCH>7539</REV_AT_EPOCH><BSTAR>.46692E-3</BSTAR><MEAN_MOTION_DOT>.181E-5</MEAN_MOTION_DOT><MEAN_MOTION_DDOT>0</MEAN_MOTION_DDOT></tleParameters></data></segment></body></omm>
<omm id="CCSDS_OMM_VERS" version="2.0">
<header><CREATION_DATE/><ORIGINATOR/></header><body><segment><metadata><OBJECT_NAME>ONEWEB-0629</OBJECT_NAME><OBJECT_ID>2023-004AG</OBJECT_ID><CENTER_NAME>EARTH</CENTER_NAME><REF_FRAME>TEME</REF_FRAME><TIME_SYSTEM>UTC</TIME_SYSTEM><MEAN_ELEMENT_THEORY>SGP4</MEAN_ELEMENT_THEORY></metadata><data><meanElements><EPOCH>2024-07-10T22:15:42.559488</EPOCH><MEAN_MOTION>13.17651825</MEAN_MOTION><ECCENTRICITY>.0002531</ECCENTRICITY><INCLINATION>87.9178</INCLINATION><RA_OF_ASC_NODE>146.4972</RA_OF_ASC_NODE><ARG_OF_PERICENTER>88.5137</ARG_OF_PERICENTER><MEAN_ANOMALY>271.6285</MEAN_ANOMALY></meanElements><tleParameters><EPHEMERIS_TYPE>0</EPHEMERIS_TYPE><CLASSIFICATION_TYPE>U</CLASSIFICATION_TYPE><NORAD_CAT_ID>55170</NORAD_CAT_ID><ELEMENT_SET_NO>999</ELEMENT_SET_NO><REV_AT_EPOCH>7457</REV_AT_EPOCH><BSTAR>.1778E-3</BSTAR><MEAN_MOTION_DOT>.82E-6</MEAN_MOTION_DOT><MEAN_MOTION_DDOT>0</MEAN_MOTION_DDOT></tleParameters></data></segment></body></omm>
<omm id="CCSDS_OMM_VERS" version="2.0">
<header><CREATION_DATE/><ORIGINATOR/></header><body><segment><metadata><OBJECT_NAME>ONEWEB-0631</OBJECT_NAME><OBJECT_ID>2023-004AH</OBJECT_ID><CENTER_NAME>EARTH</CENTER_NAME><REF_FRAME>TEME</REF_FRAME><TIME_SYSTEM>UTC</TIME_SYSTEM><MEAN_ELEMENT_THEORY>SGP4</MEAN_ELEMENT_THEORY></metadata><data><meanElements><EPOCH>2024-07-10T20:13:15.191616</EPOCH><MEAN_MOTION>13.18685637</MEAN_MOTION><ECCENTRICITY>.0001335</ECCENTRICITY><INCLINATION>87.9156</INCLINATION><RA_OF_ASC_NODE>116.0321</RA_OF_ASC_NODE><ARG_OF_PERICENTER>85.8219</ARG_OF_PERICENTER><MEAN_ANOMALY>274.3066</MEAN_ANOMALY></meanElements><tleParameters><EPHEMERIS_TYPE>0</EPHEMERIS_TYPE><CLASSIFICATION_TYPE>U</CLASSIFICATION_TYPE><NORAD_CAT_ID>55171</NORAD_CAT_ID><ELEMENT_SET_NO>999</ELEMENT_SET_NO><REV_AT_EPOCH>7658</REV_AT_EPOCH><BSTAR>-.89199E-3</BSTAR><MEAN_MOTION_DOT>-.339E-5</MEAN_MOTION_DOT><MEAN_MOTION_DDOT>0</MEAN_MOTION_DDOT></tleParameters></data></segment></body></omm>
<omm id="CCSDS_OMM_VERS" version="2.0">
<header><CREATION_DATE/><ORIGINATOR/></header><body><segment><metadata><OBJECT_NAME>ONEWEB-0709</OBJECT_NAME><OBJECT_ID>2023-004AJ</OBJECT_ID><CENTER_NAME>EARTH</CENTER_NAME><REF_FRAME>TEME</REF_FRAME><TIME_SYSTEM>UTC</TIME_SYSTEM><MEAN_ELEMENT_THEORY>SGP4</MEAN_ELEMENT_THEORY></metadata><data><meanElements><EPOCH>2024-07-10T22:12:11.683008</EPOCH><MEAN_MOTION>13.11414635</MEAN_MOTION><ECCENTRICITY>.0001126</ECCENTRICITY><INCLINATION>87.8970</INCLINATION><RA_OF_ASC_NODE>161.6687</RA_OF_ASC_NODE><ARG_OF_PERICENTER>62.8385</ARG_OF_PERICENTER><MEAN_ANOMALY>297.2858</MEAN_ANOMALY></meanElements><tleParameters><EPHEMERIS_TYPE>0</EPHEMERIS_TYPE><CLASSIFICATION_TYPE>U</CLASSIFICATION_TYPE><NORAD_CAT_ID>55172</NORAD_CAT_ID><ELEMENT_SET_NO>999</ELEMENT_SET_NO><REV_AT_EPOCH>7330</REV_AT_EPOCH><BSTAR>-.34897E-3</BSTAR><MEAN_MOTION_DOT>-.111E-5</MEAN_MOTION_DOT><MEAN_MOTION_DDOT>0</MEAN_MOTION_DDOT></tleParameters></data></segment></body></omm>
<omm id="CCSDS_OMM_VERS" version="2.0">
<header><CREATION_DATE/><ORIGINATOR/></header><body><segment><metadata><OBJECT_NAME>ONEWEB-0710</OBJECT_NAME><OBJECT_ID>2023-004AK</OBJECT_ID><CENTER_NAME>EARTH</CENTER_NAME><REF_FRAME>TEME</REF_FRAME><TIME_SYSTEM>UTC</TIME_SYSTEM><MEAN_ELEMENT_THEORY>SGP4</MEAN_ELEMENT_THEORY></metadata><data><meanElements><EPOCH>2024-07-10T22:07:33.819744</EPOCH><MEAN_MOTION>13.17645527</MEAN_MOTION><ECCENTRICITY>.0001933</ECCENTRICITY><INCLINATION>87.9179</INCLINATION><RA_OF_ASC_NODE>146.5106</RA_OF_ASC_NODE><ARG_OF_PERICENTER>84.3274</ARG_OF_PERICENTER><MEAN_ANOMALY>275.8078</MEAN_ANOMALY></meanElements><tleParameters><EPHEMERIS_TYPE>0</EPHEMERIS_TYPE><CLASSIFICATION_TYPE>U</CLASSIFICATION_TYPE><NORAD_CAT_ID>55173</NORAD_CAT_ID><ELEMENT_SET_NO>999</ELEMENT_SET_NO><REV_AT_EPOCH>7457</REV_AT_EPOCH><BSTAR>-.55706E-4</BSTAR><MEAN_MOTION_DOT>-.9E-7</MEAN_MOTION_DOT><MEAN_MOTION_DDOT>0</MEAN_MOTION_DDOT></tleParameters></data></segment></body></omm>
<omm id="CCSDS_OMM_VERS" version="2.0">
<header><CREATION_DATE/><ORIGINATOR/></header><body><segment><metadata><OBJECT_NAME>ONEWEB-0711</OBJECT_NAME><OBJECT_ID>2023-004AL</OBJECT_ID><CENTER_NAME>EARTH</CENTER_NAME><REF_FRAME>TEME</REF_FRAME><TIME_SYSTEM>UTC</TIME_SYSTEM><MEAN_ELEMENT_THEORY>SGP4</MEAN_ELEMENT_THEORY></metadata><data><meanElements><EPOCH>2024-07-10T21:30:42.130944</EPOCH><MEAN_MOTION>13.11418719</MEAN_MOTION><ECCENTRICITY>.0002302</ECCENTRICITY><INCLINATION>87.8974</INCLINATION><RA_OF_ASC_NODE>161.6434</RA_OF_ASC_NODE><ARG_OF_PERICENTER>108.1539</ARG_OF_PERICENTER><MEAN_ANOMALY>251.9840</MEAN_ANOMALY></meanElements><tleParameters><EPHEMERIS_TYPE>0</EPHEMERIS_TYPE><CLASSIFICATION_TYPE>U</CLASSIFICATION_TYPE><NORAD_CAT_ID>55174</NORAD_CAT_ID><ELEMENT_SET_NO>999</ELEMENT_SET_NO><REV_AT_EPOCH>7326</REV_AT_EPOCH><BSTAR>.11281E-2</BSTAR><MEAN_MOTION_DOT>.413E-5</MEAN_MOTION_DOT><MEAN_MOTION_DDOT>0</MEAN_MOTION_DDOT></tleParameters></data></segment></body></omm>
<omm id="CCSDS_OMM_VERS" version="2.0">
<header><CREATION_DATE/><ORIGINATOR/></header><body><segment><metadata><OBJECT_NAME>ONEWEB-0713</OBJECT_NAME><OBJECT_ID>2023-004AM</OBJECT_ID><CENTER_NAME>EARTH</CENTER_NAME><REF_FRAME>TEME</REF_FRAME><TIME_SYSTEM>UTC</TIME_SYSTEM><MEAN_ELEMENT_THEORY>SGP4</MEAN_ELEMENT_THEORY></metadata><data><meanElements><EPOCH>2024-07-10T21:57:35.085024</EPOCH><MEAN_MOTION>13.11416399</MEAN_MOTION><ECCENTRICITY>.0002137</ECCENTRICITY><INCLINATION>87.8970</INCLINATION><RA_OF_ASC_NODE>161.6479</RA_OF_ASC_NODE><ARG_OF_PERICENTER>95.5037</ARG_OF_PERICENTER><MEAN_ANOMALY>264.6335</MEAN_ANOMALY></meanElements><tleParameters><EPHEMERIS_TYPE>0</EPHEMERIS_TYPE><CLASSIFICATION_TYPE>U</CLASSIFICATION_TYPE><NORAD_CAT_ID>55175</NORAD_CAT_ID><ELEMENT_SET_NO>999</ELEMENT_SET_NO><REV_AT_EPOCH>7325</REV_AT_EPOCH><BSTAR>.11617E-2</BSTAR><MEAN_MOTION_DOT>.424E-5</MEAN_MOTION_DOT><MEAN_MOTION_DDOT>0</MEAN_MOTION_DDOT></tleParameters></data></segment></body></omm>
<omm id="CCSDS_OMM_VERS" version="2.0">
<header><CREATION_DATE/><ORIGINATOR/></header><body><segment><metadata><OBJECT_NAME>ONEWEB-0715</OBJECT_NAME><OBJECT_ID>2023-004AN</OBJECT_ID><CENTER_NAME>EARTH</CENTER_NAME><REF_FRAME>TEME</REF_FRAME><TIME_SYSTEM>UTC</TIME_SYSTEM><MEAN_ELEMENT_THEORY>SGP4</MEAN_ELEMENT_THEORY></metadata><data><meanElements><EPOCH>2024-07-10T21:50:14.185824</EPOCH><MEAN_MOTION>13.11416225</MEAN_MOTION><ECCENTRICITY>.0001677</ECCENTRICITY><INCLINATION>87.8970</INCLINATION><RA_OF_ASC_NODE>161.6491</RA_OF_ASC_NODE><ARG_OF_PERICENTER>87.4540</ARG_OF_PERICENTER><MEAN_ANOMALY>272.6780</MEAN_ANOMALY></meanElements><tleParameters><EPHEMERIS_TYPE>0</EPHEMERIS_TYPE><CLASSIFICATION_TYPE>U</CLASSIFICATION_TYPE><NORAD_CAT_ID>55176</NORAD_CAT_ID><ELEMENT_SET_NO>999</ELEMENT_SET_NO><REV_AT_EPOCH>7329</REV_AT_EPOCH><BSTAR>.14876E-2</BSTAR><MEAN_MOTION_DOT>.54E-5</MEAN_MOTION_DOT><MEAN_MOTION_DDOT>0</MEAN_MOTION_DDOT></tleParameters></data></segment></body></omm>

</ndm>
